{
  "norad_id": 42840,
  "name": "LEMUR-2-FURIAUS",
  "history": [
    {
      "epoch": "2026-03-28T21:40:12.154944Z",
      "apogee_km": 488.89877133435584,
      "perigee_km": 479.5597770717932,
      "latitude_deg": 4.616161070312242e-05,
      "longitude_deg": 115.84185548590702,
      "height_km": 482.74919775279153,
      "semi_major_axis_km": 6862.366274203075,
      "eccentricity": 0.00068045,
      "inclination_deg": 97.3756,
      "raan_deg": 267.2092,
      "arg_perigee_deg": 348.8795,
      "mean_anomaly_deg": 11.2293,
      "mean_motion_rev_day": 15.27185951
    },
    {
      "epoch": "2026-03-28T23:14:33.247968Z",
      "apogee_km": 488.8835968632129,
      "perigee_km": 479.55216669497077,
      "latitude_deg": -1.1159961021850577e-05,
      "longitude_deg": 92.25419389786578,
      "height_km": 482.7445887938851,
      "semi_major_axis_km": 6862.354881779092,
      "eccentricity": 0.0006799,
      "inclination_deg": 97.3756,
      "raan_deg": 267.274,
      "arg_perigee_deg": 348.6881,
      "mean_anomaly_deg": 11.4204,
      "mean_motion_rev_day": 15.27189754
    },
    {
      "epoch": "2026-03-29T22:49:47.614656Z",
      "apogee_km": 488.7034635554619,
      "perigee_km": 479.33113321472774,
      "latitude_deg": -4.794495038035874e-05,
      "longitude_deg": 98.44754092521346,
      "height_km": 482.5884271625687,
      "semi_major_axis_km": 6862.154298385095,
      "eccentricity": 0.0006829,
      "inclination_deg": 97.3754,
      "raan_deg": 268.2459,
      "arg_perigee_deg": 345.2283,
      "mean_anomaly_deg": 14.8755,
      "mean_motion_rev_day": 15.27256715
    },
    {
      "epoch": "2026-03-29T22:49:47.615520Z",
      "apogee_km": 488.7031890692906,
      "perigee_km": 479.33140770089994,
      "latitude_deg": -4.911868793857541e-05,
      "longitude_deg": 98.44753746644504,
      "height_km": 482.5886926365229,
      "semi_major_axis_km": 6862.154298385095,
      "eccentricity": 0.00068286,
      "inclination_deg": 97.3754,
      "raan_deg": 268.2459,
      "arg_perigee_deg": 345.2283,
      "mean_anomaly_deg": 14.8755,
      "mean_motion_rev_day": 15.27256715
    },
    {
      "epoch": "2026-03-30T11:24:33.907680Z",
      "apogee_km": 488.6323776028821,
      "perigee_km": 479.21543418050805,
      "latitude_deg": 1.815306969811883e-05,
      "longitude_deg": -90.24347737785352,
      "height_km": 482.51366293496966,
      "semi_major_axis_km": 6862.060905891694,
      "eccentricity": 0.00068616,
      "inclination_deg": 97.3751,
      "raan_deg": 268.7644,
      "arg_perigee_deg": 343.4313,
      "mean_anomaly_deg": 16.6701,
      "mean_motion_rev_day": 15.27287894
    },
    {
      "epoch": "2026-03-30T22:24:58.557312Z",
      "apogee_km": 488.50785747770624,
      "perigee_km": 479.153211616559,
      "latitude_deg": -1.6383582911539562e-05,
      "longitude_deg": 104.65488564889544,
      "height_km": 482.50013133739463,
      "semi_major_axis_km": 6861.967534547132,
      "eccentricity": 0.00068163,
      "inclination_deg": 97.3751,
      "raan_deg": 269.2175,
      "arg_perigee_deg": 341.4166,
      "mean_anomaly_deg": 18.6823,
      "mean_motion_rev_day": 15.27319067
    },
    {
      "epoch": "2026-03-31T01:33:39.735936Z",
      "apogee_km": 488.4949010829678,
      "perigee_km": 479.1172324490626,
      "latitude_deg": -9.900312682070342e-06,
      "longitude_deg": 57.48375619166199,
      "height_km": 482.4738793539803,
      "semi_major_axis_km": 6861.943066766014,
      "eccentricity": 0.00068331,
      "inclination_deg": 97.3751,
      "raan_deg": 269.3471,
      "arg_perigee_deg": 341.0721,
      "mean_anomaly_deg": 19.0263,
      "mean_motion_rev_day": 15.27327236
    },
    {
      "epoch": "2026-04-01T01:08:46.937472Z",
      "apogee_km": 488.3182053562141,
      "perigee_km": 478.9645035745416,
      "latitude_deg": -2.2766056420202883e-05,
      "longitude_deg": 63.70693757997937,
      "height_km": 482.43688890313774,
      "semi_major_axis_km": 6861.778354465378,
      "eccentricity": 0.00068158,
      "inclination_deg": 97.3752,
      "raan_deg": 270.3189,
      "arg_perigee_deg": 337.0978,
      "mean_anomaly_deg": 22.9956,
      "mean_motion_rev_day": 15.2738223
    },
    {
      "epoch": "2026-04-02T18:01:31.597824Z",
      "apogee_km": 487.9667210673779,
      "perigee_km": 478.6502503868578,
      "latitude_deg": -1.9922996826018488e-05,
      "longitude_deg": 170.52591026746504,
      "height_km": 482.29322256793995,
      "semi_major_axis_km": 6861.445485727118,
      "eccentricity": 0.0006789,
      "inclination_deg": 97.3752,
      "raan_deg": 272.0028,
      "arg_perigee_deg": 332.1773,
      "mean_anomaly_deg": 27.9102,
      "mean_motion_rev_day": 15.27493378
    },
    {
      "epoch": "2026-04-02T22:44:31.277472Z",
      "apogee_km": 487.9064282571135,
      "perigee_km": 478.5552072856299,
      "latitude_deg": -4.462250649094624e-05,
      "longitude_deg": 99.77804542174842,
      "height_km": 482.2437809020815,
      "semi_major_axis_km": 6861.367817771372,
      "eccentricity": 0.00068144,
      "inclination_deg": 97.3753,
      "raan_deg": 272.1973,
      "arg_perigee_deg": 331.058,
      "mean_anomaly_deg": 29.028,
      "mean_motion_rev_day": 15.27519314
    },
    {
      "epoch": "2026-04-03T11:19:09.702048Z",
      "apogee_km": 487.7907236059782,
      "perigee_km": 478.44528261644155,
      "latitude_deg": 9.38613143890901e-06,
      "longitude_deg": -88.88029693545921,
      "height_km": 482.2231764062928,
      "semi_major_axis_km": 6861.25500311121,
      "eccentricity": 0.00068103,
      "inclination_deg": 97.3753,
      "raan_deg": 272.7156,
      "arg_perigee_deg": 328.8682,
      "mean_anomaly_deg": 31.2153,
      "mean_motion_rev_day": 15.27556988
    },
    {
      "epoch": "2026-04-04T06:11:05.127936Z",
      "apogee_km": 487.635596486346,
      "perigee_km": 478.2385322263217,
      "latitude_deg": 2.3747172071427702e-05,
      "longitude_deg": -11.858714555340551,
      "height_km": 482.1547415045223,
      "semi_major_axis_km": 6861.074064356333,
      "eccentricity": 0.00068481,
      "inclination_deg": 97.3754,
      "raan_deg": 273.4929,
      "arg_perigee_deg": 325.8349,
      "mean_anomaly_deg": 34.2449,
      "mean_motion_rev_day": 15.27617415
    },
    {
      "epoch": "2026-04-05T13:37:32.113056Z",
      "apogee_km": 487.3755730777639,
      "perigee_km": 478.0227440097142,
      "latitude_deg": 5.0667198301882796e-05,
      "longitude_deg": -123.4668867168813,
      "height_km": 482.16854105479666,
      "semi_major_axis_km": 6860.836158543739,
      "eccentricity": 0.00068161,
      "inclination_deg": 97.3759,
      "raan_deg": 274.7884,
      "arg_perigee_deg": 321.0441,
      "mean_anomaly_deg": 39.0307,
      "mean_motion_rev_day": 15.27696873
    },
    {
      "epoch": "2026-04-05T19:54:48.850848Z",
      "apogee_km": 487.3156895044485,
      "perigee_km": 478.00010219486285,
      "latitude_deg": -4.326615883555634e-05,
      "longitude_deg": 142.21424583215648,
      "height_km": 482.1912749752235,
      "semi_major_axis_km": 6860.794895849655,
      "eccentricity": 0.0006789,
      "inclination_deg": 97.376,
      "raan_deg": 275.0475,
      "arg_perigee_deg": 320.0871,
      "mean_anomaly_deg": 39.9868,
      "mean_motion_rev_day": 15.27710655
    },
    {
      "epoch": "2026-04-05T21:29:08.006784Z",
      "apogee_km": 487.3004304683873,
      "perigee_km": 477.9914457466448,
      "latitude_deg": 8.934655943476505e-05,
      "longitude_deg": 118.63455299952003,
      "height_km": 482.1953814239512,
      "semi_major_axis_km": 6860.782938107515,
      "eccentricity": 0.00067842,
      "inclination_deg": 97.376,
      "raan_deg": 275.1122,
      "arg_perigee_deg": 319.8285,
      "mean_anomaly_deg": 40.2453,
      "mean_motion_rev_day": 15.27714649
    },
    {
      "epoch": "2026-04-07T11:12:43.787808Z",
      "apogee_km": 487.0621104894635,
      "perigee_km": 477.73425243534075,
      "latitude_deg": -9.241669374015113e-06,
      "longitude_deg": -87.2584025944952,
      "height_km": 482.2853535899284,
      "semi_major_axis_km": 6860.535181462402,
      "eccentricity": 0.00067982,
      "inclination_deg": 97.3762,
      "raan_deg": 276.6677,
      "arg_perigee_deg": 313.6536,
      "mean_anomaly_deg": 46.4139,
      "mean_motion_rev_day": 15.27797406
    },
    {
      "epoch": "2026-04-08T10:47:25.410624Z",
      "apogee_km": 486.94223115162913,
      "perigee_km": 477.60864003300503,
      "latitude_deg": 4.379306156045424e-05,
      "longitude_deg": -80.92806421205738,
      "height_km": 482.4050409060427,
      "semi_major_axis_km": 6860.412435592317,
      "eccentricity": 0.00068025,
      "inclination_deg": 97.3764,
      "raan_deg": 277.6398,
      "arg_perigee_deg": 309.6428,
      "mean_anomaly_deg": 50.4211,
      "mean_motion_rev_day": 15.27838409
    }
  ]
}